,url,page_content,about_content,contact_content,emails_x,logo,error,emails_y,extracted_content,extracted_about,extracted_contact,number_found,address_found,name_found,email_found,extracted_content_Name,extracted_content_Address,extracted_content_Contact_Number,extracted_content_Email,extracted_content_About,extracted_contact_Name,extracted_contact_Address,extracted_contact_Contact_Number,extracted_contact_Email,extracted_contact_About
0,http://topnotchroofing.com.au,,,,,,"Failed to fetch the page, Failed to fetch the page, Failed to fetch the page",,,,,,False,,,,,,,,,,,,
1,https://www.cryoprep.com/,,,,,,"Failed to fetch the page, Failed to fetch the page, Failed to fetch the page",,,,,,False,,,,,,,,,,,,
2,https://www.vitachiropractic.com.au/,"Vita Chiropractic - Chiropractor Services Chiro Newstead
Home
Book Online Now
Services
Chiropractic
Remedial Massage
Myofascial Cupping
Pregnancy Massage
Pricing
Blog
Gift Cards
Privacy policy
Contact
Vita Chiropractic & Massage in Newstead
Welcome to
Vita Chiropractic & Massage
.
Our clinic offers chiropractic and therapeutic, deep tissue massage in the Fortitude Valley / New Farm / Newstead area, conveniently located at 68 Commercial Rd (corner of Masters St and Commercial Rd), Newstead (less than 200 meters from Gasworx).
We specialise in treating pain and offer a personalised service for every client.  If you need help with treatment of a specific injury, want to improve your posture, or need help repairing, stretching and energising your body while training, make an appointment and start feeling better today!
BOOK ONLINE NOW
Treatments available
+ Health rebates available﻿
+ ﻿Chiropractic﻿
+ Remedial Ma﻿ssage﻿﻿﻿
+ Deep Tissue Massage
+
﻿﻿Pre-natal / Pregnancy Massage﻿﻿
+
Trigger Point Therapy
+
﻿Myofascial Cupping﻿
+
prices
start f﻿rom $70
Trading hours
By appointment.  Closing time indicates last appointment end time.
Monday           1pm - 6:30pm
Tuesday           CLOSED
Wednesday     8:30am – 6:30pm
Thursday         8:30am - 6:30pm
Friday               CLOSED
Saturday          CLOSED
BOOK ONLINE NOW
What is chiropractic?
Chiropractic is a healthcare discipline that focuses on the diagnosis and treatment of mechanical disorders of the musculoskeletal system, particularly the spine. Chiropractors primarily use their hands to perform manual adjustments and manipulations to the spine or other parts of the body. The goal of chiropractic care is to alleviate pain, improve function, and promote the body's natural ability to heal itself without the use of medication or surgery.
Chiropractors believe that proper alignment of the body's musculoskeletal structure, particularly the spine, allows the body to heal itself. They use various techniques, including spinal adjustments, manipulation, and other manual therapies to address issues related to the body's alignment, joint mobility, and overall musculoskeletal function.
Chiropractic services are commonly sought for conditions such as back pain, neck pain, headaches, and musculoskeletal issues. Chiropractors may also provide advice on exercise, ergonomics, and lifestyle changes to complement their treatments.
Benefits of chiropractic care
Chiropractors have an in-depth understanding of the human body, the central nervous system and all
of
its functions.
By focusing on your entire body, including all your muscles, joints
, nerves
and the musculoskeletal system
,
chiropractor services are able to treat a number of different conditions.
Below are some of the
benefits
you’ll
receive
from treatment at Vita Chiropractic
:
+ Decreased
pain in one or two sessions
+ Headache relief
+ Increased range of motion
+ Relie
f of
chronic pain
+ Focus on the root cause of your pain
BOOK ONLINE NOW
Issues we work with
Chiropractic treatments can be used to manage a wide range of conditions such as:
+ Headaches & migraines
+ Lower back pain
+ Sciatica
+ Neck & shoulder pain
+ Postural issues
+ Tendonitis pain
+ Tennis elbow
& Golfer's elbow
+ Muscular injuries
+ Sporting injuries
+ Joint pain
+TMJ adjustment
+ Surgery prevention
Why choose us?
At
Vita
Chiropractic, our
main focus
is you.
We treat a wide range of symptoms in people of all ages, from children to the elderly, providing you with the most effective chiropractic treatment to relieve your pain.
We
will use
our
knowledge and experience to ensure you understand your condition and to support you through the treatment process
.
Our aim is to
help manage your transition to healing and living your best life.
+ Convenient
location in Newstead
+ Treatments tailored for your unique needs
+ Holistic treatment for your pain
Areas we serve:
Located in Newstead, an inner northern river suburb of Brisbane, we are a few minutes away from the following suburbs:
+
New Farm
+
Fortitude Valley
+
Spring Hill
+
Bowen Hill
+
Herston (Royal Brisbane and Women's Hospital)
+
Albion
+
Windsor
+ Hamilton
+ Paddington
BOOK ONLINE NOW
Special offer
Buy 10 massage treatments and get one free.
* Offers are transferable
Gift vouchers
Massage gift vouchers available at the clinic or we can post them to you or someone special.
BOOK ONLINE NOW
Vita Chiropractic & Massage
68 Commercial Rd    Newstead     QLD     4006
Phone / Text 0408 828 838
Home
Book Online Now
Services
Chiropractic
Remedial Massage
Myofascial Cupping
Pregnancy Massage
Pricing
Blog
Gift Cards
Privacy policy
Contact",,,,iVBORw0KGgoAAAANSUhEUgAAAK8AAAAdCAYAAADckDwLAAAfgElEQVR4nO2cZ7htZ1Xvf//xzrXWrqcnOalgQmgqBpQ0cgUFxAgCN3oRCAhSzUFAQBGULk0RCxAQAuEikgcEQQSJFCkS6RpKgGsSCITkJDm97LLKfMf/fphrn3MSEi/P/SIfMp5n77XXXnO+Zbyj/seYSxsuOPNZhnMQF8n8M1D2Hb1YeenHWfidsylZhbBhs1JvBr2drP9EKS/H/gmJ5xquDwNwx4TfBxXwLLBBsMXoY8IvBRqgBX7Z8FCZbUDZd8JsXbxhlYMXfoHbohu2voR+jkBgFIbsMaJq9sGyn2B8LOgAEOCtwLXAu9Pt+6WZFdG+FHQKzhcC1wCxecerEmD3Mc8PIIGTIF4O/r7q8otp5hN0gs0rge/WdvTSppkx0h0hX2uzA6gSG4FF20Ojf1ze07tkYdMkkQVYSTFZHTML8ui3Qed2PGIFGACz4P8QvM7iypyR3nH8tbzup671ntnaK+P29RgJKmgDcs8mZD4j6eJKLoUDB0/BPhf4nmARtM54AXMl0tvBX4u0YoIHk8LKph4MRzgoQBVcYNgkeAWmzLTU1V4gJxYqTmcWCJ9tsU1wimFpeqZbQftkvw/pveAdwKmGZ4MEnjtCHv4J/ArgxcBdkV4EXIUItcZBFmJzJZ8uuL+78VeBdcB64OPAu8JiCTgPs82AhTfedIDBs85hODsHViGFqh4C/BrwXUcwZdKjSWaVYAlLxwDbwGdL+rrQV4H/FOxHa6Mbw28CT62lbKoRdd32oZp6m3ILnURiBBCys2Suqwzej/Pd4G8IX+DCo2vRo7C20U34TlFOCLd0a/f5VoQVWDo09nTtWJoHPxb4pUazWYHE0//53HnhKpOuPdvngc8Fv5/Mt2K/DZgTfufCpvE7Np2+i4MTDCqWKor7yONvGj0BuMiKx7c9PcqKxwAvMpxguBzzu5qkd82PufbomyjD1pjHAI8U+jvBWwV/DXzb4q8SfxKx1TLYdwYeDrSB3iJxEdI/I35zqhwPtuTaVwEzzgkugeokIyuGpwBPnNvxfVbn19WVQQgESHJ4/UrIxa+z+BSd0D4rxPmlF48GngBcbfEG8M8BIJ0A/Db43pK+eoQ8HJiy/mHAIzEFG7VeMyIPruT/AR5s+AsiHhf95lGCRyP9FXAB8Mpmqa93LIz8+8BDIE8CXZtBrF9ayZWZREkCOHgq8AHg227HqOnvAazQEkBneJl0L/pnZ762UzhjQFAME8TJ6hYdkfWxMn8FlN4qLS+5H7zk07cqvBtWrufAzNGqLjkaU+YH9VLgbPCZhi+Kw8KIuKzU8WW19P5XIa6DxOh64CdTMdbaig5LLxaA9ouswEGo4AC8Mr324ITS7VRMphv+huCTSHS7jA+CPww8Zs+XNl+82PApk1XWzyEuA76ya/XkM7fMXlNlM13HfvANEp/AvBz4C7U0L7r81D971cceFHrWx+r64ff2AkPwkcz5F2AEvEzoicArpu8xfDjxlwKB/XGHPqX01w0vr+l/aiuVRVi544B1Vw+LS68CvyA4DWD56Dv8yuzKgY8AgZqa7SqhYM98/x3AYy3OV+oSKxFaY+Ve8JOBD1l8fXoeo6kQf8iZf466xSWdMUL8ALinIsYWkG3r0IOADyM+zk5+iaOmLDdY2q/0WxH/ZrhjLAw9Bv6mO814qBKUxI63/DtRM7KQWTgFON3iz5CRAqACQhJHWLGpNIyn/xvQCW3IkiyEngm8D/ge8LR9DxrjsdrRLNpww+hWBRdgsP8tBBkNLXOD+lzgbKTnAF8E+kDQyYOAsnBwCcN7yZXVjl0A1CAnciKh3ce9SLuPe5GIUHdbZ9mBcauGjIZUM5zudSlLTLfH8qH922D3QDNTFf7IdK6tBkbjcYN46/QQH7Fl7poq3DcSqbVJmx/cOKL0/ALgy6DXLJX27ju3Xpn8+btNZ+UGEyegsNUHYcW/TNdzt04W2Dt9jQTS9JVZDpQHfwO4Gji63x/MzM70gNBgR0ukiTSCpwMXAmOYemGwXYuaWbv0HwY8FrhI9iXGjVAxyImAIAmbfxz05q5fE4Tu95o8aAAUQc9r5g4wXrFN2+stABcDK6R+Q1sA00MobRkL04C/Db40pne/azrO40oO6E/m6/ptp6MurkL244ErlPk50j2VBuAg4EzGtd5SeA+tLEtElcJV0daIzcBDpfhdOoU5dd3HBw9gYBAR7tF/7jm3HAuA3cf8oZzUrJ5R5zYmmXnJVOja9XNHZ1FxWDaqezduFlAU/TXTUIBhW3p7pEJp+lUKS+HS9GsgUhpOhekgYi20WBMwy2ZSZqjR1KnwdvwTEtlOl3qXKQu+K2DQG9wf+BngvUpfI7sJeyylo5XDE4PbE48Z9OpEYC4ECMcTu/DGms7jQFRNbb9A9obpnHu7dWhNS6NzehlIdfP4H+aAOwLfY7Q6jOFQNfDgQI2MqBnxs8BPZTv5HeBSuvDiTqC00DRmewYdEy7qprIhq11d27Qhs1ECMZqsxK0eItSIqODUYd5C5kiZRLYPBY4DLkbea+gBE5yeNHZvtXVp23bKjwjZRfY1dCHBz7XN6N6jwbJRKZtP+MVW7SqgR1m8HgVrZncqDCsRZVjK4DbWiidKRJYgKc6nAl8nc6+ldwPIfppsIpPRjImRb30kIRWIorsAJwL/PtP0bpxv+ko7Dw73sHH7y5ipBecI6tgo6s0UHJreZHyqFJuduQXYAmxx1qOKysZS6ylHXn3LlRhNzYzXGD/u1qaxTGviYcAzgLe24ovTi9a08TJPddy7JnjYsGXHH7PppldPx/VaKPHV6fX3W15f0ZNO81T7UhIyCR6pTcBPA7D0/iP2CHCANNhDKQetmncADdJza1Oo/Sb64zHC0bkqP8PwoWh6GL1lOtJvYTOc67UJmxGnA7ui+krZYFIO9r/pyxx40xcoBRpB6TKk25KHH+LpodMFZH5++n4tc3e0ZnlDn+W/+Bzj2RkmgxlSvZSVjcs0FTJvMvxPrMdjvowou67/ZFVv9v6YHiXe6QRl5s3nNRGm3nrCpYhGmuu3+tMXktv+8NHA71gQNb/t0EXAkx1xJ5urm0kbm1Yn+YNbjX2nsYm0ZcqCmybthHZqs1fd6dTCzpccumPn1hccybIWGCD+1m4PUmnXmDa9okheP32bHPnhLckEXfb7s6l4gQxEubuc9zA8f/PMNa9eWT5Oo9J3Epumwr5r7fbcOmDL9pceGq4OgdlDs+2RGQu2nnjDXPmt792hfuDUHS2wBXEvw0TmJBdtA35F5rcn4lP9IzYK/D6KLyIfk3A6EEhnkHxJKGLs2s70JWgtH0v6HMR9AUpbP5Il/k14G6W8enalPSh0lPECcP3MAfbf+NQ5Ft839P4tM4f2sPcNh5GiDdvOui3O3RalDRJ3oGP89jVOZwPtK/8VgANvvOxmNzWSstf04cTjPjH+zjVXAY9z8IJJ0d7BJLH0VOB9anPsDuo6Unn0XxwxgJnU8GS15rY/eqxgdbKh/6/9/eO7O+Jk8GJ3kZ8U5nlADEY1F/aMWLqtAeUOR5iuw53dYnjjf7UMQbf2YUb8uuWDMr014yoIi6Ecx0bm11kLB/5raoCbwCcBT8ZcNYj+aaMcr6xOjmFYBkX4SAU5xLcyubn+52yfYLJ2qUUaUDDh6JUGuhBlEfM8dQauNVyBeC7JN5t0z2Jy6CTE97EvAE4B/ojKK9VLjEKtk1iBnCuG1opnCC5nhes0xz2zlFPAI2CDXR8R5m2dz+v2sLouWfe3e1F/7jaT6/8fmpqmaRh7KPyhuS1bDQSTicejUTO++hqD3gzMy5zX7/C244EzhP5ahjC3sLpd7mj/kNld46M6ZCoQfrrRRRt278TmOMQ96HDOnTJPcpR1jmh3bpzpUqTb2qTZP/1zCwqknnFl/VG3XNqtUtq6XmaH4XrBdsF2i+tk7bK1pvH/pUYiki5J/EHgpwDvNJw6yvGzo5hhzjQdc4Tw3uldm9ZuH/X67D36+YeGm9WEYlOcFOc6ukR35zeOK/XiO13L9P11DEePaE8+/tdr8gjgD2S+aYiIwzkG3cTvyIiz6fj7exTuXBMsq/ag7c3LqM3qvvAjLb2umakbbLYi7glcB6TM07qz1U5gCGxUGSxGfwEhLW4780fh+Y9Ca8biBwAWWztdt4ZR2PT0+9zqTY0junyx2/UloNcA22TeZvRY4JvGVyEKjSvtoZi3AnN2nUm3y7q5sTqUONg5mbqkEyTetVzWJfAJt+0nFMEUoH4prv8L8zagREu7Zdvp7Hrjlw6PaLLbj79N0U3APavrJlH3oNBM7vaNx7+MQU5Yt36e0biysrwSPiyGU6CGHqlhhMPqbLhMYKrwWvDewYO3kGHhLonzoWtmZSjmSW1wN+CPs5Zv4vwAMINoMZ+fGtQzIS7smJ44gpuOfjFFbQdYQKhzn6d1hRj/23H7xuz4my9rwwVnGSiem0V79meH4alLIrc6vUO39BTHReYVwG8AHwLeV/u9M3qTdrULeRyIVr14AuagMv+1dkNc6ra9dHoufeCRRLmfa36a4GvAGUneCftydcWgumHbmdQm6C23IFH7Efyw8q8p120ZhbXPPw88UfYZwHsARZqaZt0z/wcadimGQwpQRGnYv36QxZQwNwCXAPfKiJ+jw2PfemgGBUq782rMA5KiH4e8yiGax0aeunjzB8BHsJexGkMQ0WQJUoeQjqdtWl3hF751ZTuZFSuld7MBN+24rwkKRcuYtwLzofifKBDur/Y2qhmvqrat9u09EKtLywWRe/sLOY05E+jLHmjqMI7a/nIftf3lnoK0HApIYF6a6nR3c/e5RKkV2UGXsE4AWuUY+9eBg5DvMbqbpWGPGksx+8/A1aBHIx+DaJW1l4kaVXU+0gVPsmYL4gkAKV1sg6y1+a1aKQdXVIocqK7b3cuZaw/zyT5kQUZTkfgw8Dzgp3vj9qJWQRtBb9LWMjGY37W4eApj9abn0nMIi4umY/xOp+N6M4Cc508hllJQhKX+xKozjbJR0ymgW25O89MteC0+8JGhX9AQIpry98Ae4DejX2YVMQncKKRm3CpCQioZYUPG3qN6MExaidop88XTRf4toFb6YI0EyMhCzdbTMKEHpHFXhrhZaKI5MBkxytCdgAca3tx9RPZEMmja0rqUynfocN977p2b/cVP/eSdiXRZ290aXXfcxzrrm5DWK4GrgIvsclesEdiZ1c7qqaBWw90XJ6sb8zAu3VjMTqtph0PEDqtdc0AtMFuyUrIlsh3QubX5IAlaRC5MhXcq7dG39H3DI4Ge5L+r0Z+pUXIhV1usC+hw6P/tyQTQRE6nOwIq0WREeTZwf+BV69vmK0ffeNe44IP3WeN1L2Zm+1IYFfa+6fNc+3efpZ09EhufQmeiN31tkP4EeD9wfpP57KZmTno9t704FzjJ6F1T7WhLkDTRHrjwCo79VvtJ4GvArwmfQlvfDnwM9BzSD8QeTyEvRycA7ninkyUdv8ba7rfmpiZgDeVj6vQSIIgFSeSk7jPaBmzOcX2TOxSgpUt1LNuImnIjuFfwkk8zP64Qke3iAvtPOflTwBV0eOV7m3QtNZrBgZ5tE65WJ1gbgLC9YGcnwumNUyYu0sE6yH4VcF1t4svD+Z5KzayZlBxj0f2gd3RqqBc1k0pv3OYt/eBCOwNgh0JiJR0PBC4P1a8gLpA5ATMLzGLuDPrLsN9bpFYUgBPoEP6+pl7hMCXqftbTJWLrrUOV0YXpIWzsTZKpzK+Zu+P7dcLiaHUCbkR+hK7S9VNNjj7siftuEPInjM4Dfl5N8wXgAUibsAfAAuYeWG8DvRbx6tXR3j8c7HwZev2z85KP1gY4Ftjotg5I39xOHCkksDB9e8z0fThzrex7PfBaicdMb3gt5jOCnZbKwnBsZTI3WvaGC36yufGuDUZ/A5CK56kEVjwC+JBDH5X4Y9CdMHPAjKSTEM+181+MN9nG9uZOHDp5QMK55s0EcNL084GrO2XD7wGeCDwW6eNI50xlbYC9EencXuWLNr/RADAjDuw86PU1y/qDS1Xwp8CjEl1CGEEdL1RkU9fPe+knBqz/5sqngZ2YlSNAh13AvwJfE0GQMxUl8NJea3q1jT1v/vXKSz/C+ptWCDs7IfJnspR3ghbbXu84YHupXotRp/pgHEKQFgXp+y0b791j32/ZfrjhYU2/txtTjdcDN2H/ZjUH1y8OWFoaXgp8XzktJhxZTT481bLEh4Erl3b8gMHRJ4F0UOhDwLfmTjmH0bVfQNLI8FHDVyRRio2jthlg/rhp6ibB3QgeoPRHhBrkD2T0To46eRr4OYhhidhve5ZuvdeDTg/XLx91/Fn879Nbvfy0q33DwpjesL4b6OVk8kP4TgJC04zZ3wYuo6tegtTKNJjdhM/HeiHoHIKvKP0d4K9iqsT9idl+hzk23pgIZRem599buh8oUjEP3u9xPlT9OA94jOHCSu6tYuTKOmDJ6Mnt8q5v9Oe3gH0D8FngijUkpePzofDso8AO8GTqB5N0YF1M0aexn4H9UpsDVd5nxRz2DPC3JScXHeLDzJN/lqLAoBKN0y3F6kJ7MCUID9g8dzfW9U/gqj0fwp6yjs6uHykMyyxxdFnQgWr3gAyU4BmLvX/9JXjJ/dhw/Upn3DIZNaICd2l6zBHctzfHq//yYxxJu45+PjqcWkfPka0qYZHEOjWxyabNWm4IDyuCRNrJOm9tDhA22QZMi8Ebb3pFN+7xL2AtuG2okPAnNzyGpx/7Lhwwz9oBCy0YV2hbaBGbVnahPX/NrmP+CIyUWH0TIYa7i9ZvGrvkhIOeKUSpdqWpwaQpWyJYJHM0Oji4sT+3lKFAZGT0faAZ+/LJtZz3ot3MfW0PRtzxhC/x7febOO1Xybd/GICTtt2b3V16rFzLJ6MH2VJlZmuACCuzWlRX5mdnyupwXBszDZ/sxmLvW77E4gVno9pC56U8ic5vHxPBXoUYVmIQtoX6Mas2j7JEW7SjGdchwMabdnDT1qMO4QBhMYrOZszWHpMpErYWuDXqY7oaMz2hURakiuDEK3fzg7tu2Sozm8F+RrlHDSjrYYhgZnaO4eoqq8PVNdUIAmmazhy88Aughu+85k189TMvoGuBcCSmknR5nEk7DGK4E0seZxVIy5p4tX8j5HTFL/n0NGwQWQqGmDi1B7ge84G6yi1py45X4XGHZkuRlRSoCAXyAezvga+DtoJLh+7hux33QSSEkLs8Ff9Qgs4aQyVJrzrjT2gV1LWoTQgl0Ycoa9chKHj2UVOFSFMsQZRAZZCeKabSo48r00RvphYEu2Rfg7291xsldgFiJeZy6OK9MeK8G94Fq4mnId/+/ZvYcPZ9WJzbxU+9+FE86PV/yLUr+2CtCwEr7aiY1bLMbBSNekvkpE1QGMdwsortmlI4IlzkLEF1sP4pZ6CaTCMmOyRDjFw1VKFBjtkiurCpYFbpWk+vtRnShVzNnhNP7CrKhrQjQQu1z6xFRKULfk26q+VnEZIlHJrUoBeJOl5956ePBvtGujbWPe7yj8aHZb+jzdPKSAf8B20pXSID7HvDZWzYdm/28R+Yls2czW2VAY0p02Q8uTkSsfuNnztivrNv9f5bu/aWtH/z85kZVdyIg/0gVESJzitlQoSXmwm9tgdtnx7LdF7iMB68eeeru3mOet4Ra+8qjpvLv7E/z8aItQhmRksMvRYCd7+X6ADQTSqsW91DjcJyf5G1DqFWnUWfcdLUikMMS0EqUggyyYSmabxh6UZWe/PctHgCP/PwvycL1IC55S7WnmQbRD/DI0wTwuk0Ec10PV2vEFV40qOdXaXUXndOTaLsvHY7CAZf/w9W7nEaMe2Ui50m+snsNcusnmKseTxqKYt9BiqsuNXeCz/njU87Gzsp6lHXUnyIUNTMtisYTUakYaE/S0hUqmJlbOsUVuffy8Lk/ozLMrNZGJYqtVYW5RrmQwSlB7mCak/09s96Mn+ArpiqLoR0+/8A42+n/3Y66lceRHv8PgiUgSmDJnLopHQBge1J02Pp9Z8FYP1Tfh61PZBVZ1bm+pP55VSLmxZslu5+HIMb9lFqPzzc35diiGHxqesZvvwmPB6LDYQms1UB4xmmDlheHn6P+dk73J3Mpon+lW22Q0kytlSOcU5OELpxUtvr09bqCt68od/hMgeHTT362raN3Szu+BWGg71YUha7jJIa2ig4HlyIGJXZuDoPZLu0bivzSzv7VtvD7nfakspsV28X3h9z2vwb9yM3jgJIK8+EONPKYuuTcl4ORO3P5NLruvr/xm1n0XOhccRyjJ+T8luQ9gsUWYyzgCtwruUB1j8gyhTrTqQznHlaBG8GIqeAvfG6yPIHEt/D6hl+BsVzwrmU5HmS7g18wdZD6Zq8PoxUNF5OCLs38/u23yd8jZFKBEKupc7Q8jQUm7CvgFyV4lTbPwO6BPwRrPsiP1fSJ7sEl03Ae5r/lhO5nX5kajeuypCgRcHv4foMFMcLHoe43JhSx6x7xr0B8MRUmR15da73iecG+gHpdwNRS9bxYr8uXnuAybr+0zGXHgIAwh1S6/hVxNnF/E1aqyE1Ni14G1DluGgSLSXjl2rxMGseH9aTMvPxobID+z+taZuRwc28gZNMPkZiZzqukSi1Ke2B113G+m1nvBE44LnF3ysrB1pbU8xdD+ygMwEMDAtNT2/s5Wi4UufmWuXkR2lAuZ3+m2jwlHsQCooKRTELrHfDQdvHAF/vWimLNOwR++eI1QFGap2sjztuAJaxzx87Z6qzRs1mZu+I8WL/IcDxgsXpVEEbSRt3ln0AuGFiHpJdtq5p3nMyaDmz0u/NQvpjpXUb1gnAfCwsHuiyWP6PrMtJC9nq2ncfIPh7w4NyOZpmUGtMJmy44MxHYH5yqPgDVg62tgtSkKvC+XEv69Lp+gzsoY3V1TprqMuiHd8uvD/GtNjbgMJO1abS7gD9u2pcrNBMW/wu95LIUl0q9Fsc2WXtSqQ8BekjwHKfeGxRoUla8CZJ9wJdbPgJTStFllHxL2P/A/AupIePNCaVUwyLS8FPUNFzPZ5sXUt9bV0BLHtl+e8gz+K+p4kQilDXe6yTCI4pA70M6Dfzef92WNzhDX4g8PkZ50hks2Ewrk1pUs0C6vVgo9bqyAbmW/tuRncB/7Sz7d8uvD/mlI6QSuvQKch7wHeUKU3GiFrIpv4avXoH91toqtzBT9g+zvZ2SX+OeHym1rchkB6N/DnI/wA2tznEaDKtym1ZmBt8V+mrwcf1c3CvcKnKiH7tfQDxfFu/kM5/dGHbaj9CwbLFb4OusfUGf+ar7zQ+maKcVt0fIPjGuKtif83i19SHaTiwUbAbAOOlUZ+adQon5IlqffK0olmBBfBDpHw46NygN3u78P4Y0yRHstt01mMjeXEV7wI/y/aLje8qdAfMz7vqelcdxtABxJbuQWd/CbQ7Is93v84Dpyr9CaEWWOiVubnuCT7/MvblS7UeLcrdZG1HPs9OqiqtJ6Hk/UedfOqDQX+Jeeb8OH8JQzNbrmXcPjO68vGi7Fe4VrKNdZiTs/DlRjonUrvBpzLx3aerXDJsnj7bKO9ZJDMjM8nMpzn9hGkxfADsmoz6r5m08Sdt8qdbjrlu/+3C++NNMbVQ5wPbi7m+RLkMeJPsv1T6ccavkdxKDql2LZ4AZquCfeoaFN8EnKdxeYnhH7vGJPYDcy3M9rOGpXu0UT7JJLbj/KDwnwH/Q9E7NtRkLc7jr4Od/3mFcF4CfBJ8JzCrKwkl+un8jqUXAMeaIHp+oKVrouqm0WDyuVa+UPAto0d2NUt9FjhrpbiXom03LRUd7u3VFBU5RNkfleWdH2Tlk1dw085jfqQnBm6n/36aAPfS3KDfGmpv9mKgBz6HjL3decs1C0HNabPWiTa7LMFwcimwH3yHQvsv3eNt3gXMN1EXRlF+WXhHce6HSbPKrCZNc7lgu7N9lFVRlMdce0ctqj+oVXWODq76qBQ/3Q9+IUoZC5B9H+CztWu3eAD2J9JJf7VE6Soa7wH/IpPYND6qfTuwfTb1F9GUGaFaSkymce4MMDNtBRAwOMqn103HPYzZB9yjh2pzO1T2403TpnjeITiN5fEbQ/q82uE8iudjP1nFz9PSgReWr3/L7X3OEtFYUt+tJ5g9tol+D7ovKsFucK8SbVkCvkP6WPBZoA9Og44clJWgUkHvlzg/l5sLNVdPjsqfIi4r9O4G/gdZVwFnY7ZZvnu3VE4cNbxw0OosYH+I71uErFoMQfncmHY7TT5ssKt5O8VPcvJMJvU1SN+o9kEpZhEDm091DwB4GTTeH1/6XZLaR0c55z98e5Hix5g2bDuDrvPV3v+dL7Lh5DPvbGlgT64JytLs+oVmvLyyvs1mn3C1xNDCSAulne8pV5yZw+EKlTGljqiaZ2V2DvcKm2ssuNbWyeygv2GfGnnSjshcRUCqNprEpmrvra6TpvRPBRbs3C5zk9KR4VQ0G0F3wLm6b3NeuWFPGOe6olIhlwGaOkPmBAnapq6zKQfL7L55Rta4xU1vi2ArWM66FKV3Q62j4ZYtGzlw4GAPNJ/JDNO2C7vZd7vl/fEnA5o/8V4GrjzcVUGpbbZ4mq1PL+06MzBmae0rTTbfZRs7r3oDxhxz3Ll898CnYGYWltu151yHTekzGi91nYJr33JUaIEdAG27RFM2XdV5fiERpTqze9Bqr7rvWWBuX9fSAxxYe3YCyRO1XQN61xBzAODYdjcHyoKwBewC7zrcbePuG6DaNDCx2Xczjhj+L1iAQv2QQpSjAAAAAElFTkSuQmCC,"Failed to fetch the page, Failed to fetch the page",,"```json
{
  ""address"": ""68 Commercial Rd, Newstead, QLD 4006"",
  ""contact_number"": ""0408 828 838"",
  ""email"": ""n/a"",
  ""name"": ""Vita Chiropractic & Massage"",
  ""about"": ""Vita Chiropractic & Massage offers chiropractic and therapeutic, deep tissue massage in the Fortitude Valley / New Farm / Newstead area. They specialize in treating pain and offer a personalized service for every client. They offer a range of services including chiropractic, remedial massage, deep tissue massage, pre-natal/pregnancy massage, trigger point therapy, and myofascial cupping.""
}
```",,,,True,,,Vita Chiropractic & Massage,"68 Commercial Rd, Newstead, QLD 4006",0408 828 838,,"Vita Chiropractic & Massage offers chiropractic and therapeutic, deep tissue massage in the Fortitude Valley / New Farm / Newstead area. They specialize in treating pain and offer a personalized service for every client. They offer a range of services including chiropractic, remedial massage, deep tissue massage, pre-natal/pregnancy massage, trigger point therapy, and myofascial cupping.",,,,,
3,https://will-build-builder-carpenter.business.site/,,,,,,"Failed to fetch the page, Failed to fetch the page, Failed to fetch the page",,,,,,False,,,,,,,,,,,,
4,https://e1poolcertifier.com/,"Pool Certifier Sydney | Pool Inspections and Certification | E1 Pool Certifier
0414 446 780
Book Online
Certify Your Pool
Pool Certification Pricing
Online Booking
FAQs
Contact
Pool Safety Inspection
E1 Pool Certifier
Book Now
Pool Certifier Sydney
Offering pool and spa certifications; servicing Sutherland Shire and Sydney Metro areas
Call now for a free quote:
0414 446 780
Get your Pool Certified – E1 Pool Certifier is a NSW accredited pool inspector
We inspect swimming pool and spa barriers for safety and compliance with the applicable Acts, Regulations and Australian Standards.
Professional Pool Certificates and Safety are our priority. We provide a friendly and helpful service to guide you thru the process, complete with reports of how to be compliant and safe and within the requirements of NSW laws.
New legislation requires your Pool or Spa must be certified and registered on the NSW Pool Registry by April 2016, If you wish to Sell or Lease your property. Ensure your pool has a Compliance Certificate and is legally registered.If its not, it can delay your sale or tenant occupation of your property.
Got questions?
At E1 Pool Certifier, we have got the answers, view our
Frequently Asked Questions
,
or call
0414 446 780
.
Fast Pool Safety Certification
Book Online Now
Pool Inspection checklist
Pool Checklist
Our Services
Online Pool Certifier
Booking form
Complete our certification form for our online Pool Certifier Booking.
Read More
Pool & Spa
We Certify
Our services are suited for agents and pool or spa owners.
Read More
About this
Certification
NSW Swimming Pool Regulations and Laws have changed. Swimming pool and spa owners are required to register their swimming pools at
swimmingpoolregister.nsw. gov.au.
Read More
Compliance
Certification Pricing
We provide Pool Owners advice about swimming pool and spas and can then advise on issue remediation to legal standards.
Read More
Get in Touch
Call
0414 446 780
or
complete the form below
and we will get back to you as soon as possible.
Name
*
Email
*
Phone
*
How can we help?
*
*
required fields
About Us
Lee Steege is a certified Pool & Spa assessor and has got 25 years experience in the building industry. He lives and works in Sydney and has an excellent working knowledge of building requirements of local councils and regulatory authorities.
Contact
0414 446 780
info@e1poolcertifier.com
27/58 Box Rd
Taren Point 2229 NSW
Book Online
Important Links
Read legislation here
Requirements for fully compliant pools and spas
Pool Safety Booklet
Download Royal Life Saving NSW Leasing Fact Sheet
Download Royal Life Saving NSW Selling Fact Sheet
© 2024 E1 Pool Certifier | ABN 42 087 929 358 | All Prices in AUD |
Articles
Terms & Conditions",,"Contact, E1 Pool Certifier, Sutherland shire | Pool Inspections and Certification | E1 Pool Certifier
0414 446 780
Book Online
Certify Your Pool
Pool Certification Pricing
Online Booking
FAQs
Contact
Contact Us
Home
Contact Us
Contact Us
Phone:
0414 446 780
Email:
info@e1poolcertifier.com
Address:
27/58 Box Rd
Taren Point 2229 NSW
Make an Enquiry
Please fill out the form below and we will get back to you as soon as possible.
Name
*
Email
*
Phone
*
How can we help?
*
*
required fields
About Us
Lee Steege is a certified Pool & Spa assessor and has got 25 years experience in the building industry. He lives and works in Sydney and has an excellent working knowledge of building requirements of local councils and regulatory authorities.
Contact
0414 446 780
info@e1poolcertifier.com
27/58 Box Rd
Taren Point 2229 NSW
Book Online
Important Links
Read legislation here
Requirements for fully compliant pools and spas
Pool Safety Booklet
Download Royal Life Saving NSW Leasing Fact Sheet
Download Royal Life Saving NSW Selling Fact Sheet
© 2024 E1 Pool Certifier | ABN 42 087 929 358 | All Prices in AUD |
Articles
Terms & Conditions",N/A; info@e1poolcertifier.com,iVBORw0KGgoAAAANSUhEUgAAANgAAADlCAMAAAAGGsmsAAABZVBMVEUAAAAGMVoGMVoGMVoGMVoGMVr5oBsGMVoGMVoGMVr5oBsGMVoGMVr5oBv5oBsGMVoGMVr5oBv5oBv5oBv5oBv5oBv5oBv5oBv5oBsGMVoGMVoGMVoGMVrtHCT5oBsGMVoGMVr5oBsGMVoGMVoGMVr5oBsGMVrtHCQGMVrtHCTtHCTtHCTtHCTtHCTtHCTtHCQGMVrtHCTtHCTtHCTtHCTtHCTtHCQGMVoGMVoGMVoGMVoGMVoGMVoGMVoGMVqtGSSIHCy2Fx9zIDS6FBu8FRthIjo7KUfLGiO1FR2lFyKlGSSWGihFK0vkGyPHFh3LGSJLK0pZKUYGMVr5oBvtHCS8FBoSL1aaGSbGFhzqHCOxFh7OFx3AFRs/KEbmGyJ4HzLgGiHXGB+WJDjCIC4xLVAoLE5LJkPfHSfbGSCPGyo0KkqDHS6lGCJdKUZWJD5sITbQHysdLVKIJTxhIzqzITK0Fh/RGB6aTJCeAAAAUnRSTlMAKYC/QA9A7yCfv6/fgO/PMCAQYDCfz99wj1BwYECPHgmvJJQUUBgQX8+A7yDfr1DKj2AwcL+feWxE5DZR8tevZtZR8uRANsy5mIN5r3Hyp58swHc/LQAAGkdJREFUeJztXed/GzfSJpdccdnEpsIWNatatiTLsuVup+dyd2+hJdlyEreLndhJLuVy9/e/iz6ouyRBSXl/mQ+2SO4CeHYGzwywwCCTmbw0p6A0zqDGyUpzqlVdLs0/1mW+tFxtTzXPu4EjSKO1UJo2IJJlurTQmjnvpqaXmfZyMiaAbrn6BwDXbA0FSoBrXeSe12jPjQCKyVz7YmJrjoWKYbtwfLK2bG5qqVStrk1NSdfGjF+tlkrmG5bXzgmBSZptA6XPL1cTPFZjqrpsurF6QdTWmNXoYm5hLW3jmmtV3YRnL0Bva8yqD3w2NSgmzbVZVXPnDU2FNb8wqkuaWZi/ONAUWNMjoyIyszB9IaA1q1IzSi3jVWG+GwTFXCyFwWBQQH+Ug6CbD41XK+R6LjTSgo932vB0w3wMaGCXXDEwwGtIaps2P60Jygx0QzpBR/1izYFJSKXYj5R7ZedROts4ElrhvPpUu51KKlAcXKerlNCC0KpnBSpWF/A8qrH0iwW14Q/2cpdiOdzc3DxEf+T2Hmjgyn3ZKiG0+bNSGlDXtGyEeRnV/b0Yzd2sSe7GGPfuw4sLRUlvzer0GSutAdQlUUbYgxb4oHjrtsCxuLi+uroaLiGJ/1hdXFxBX9++VYTKqwRQbU3gTOYmz/xr4kHOwdg2KgJNlW8xPa0sxnDMJcUQF6NYd7fKd8StxTq4Yko8w4nT4wKwQvB1XvD6neI9CipaNzsrSWJ02ey9osCWy4Nf2+IxLviGAqUpSL4EjEPAul/eZJpKAYpJuL6SvVe+b4LWEDXOTc5bzwiqaotv6xzWg0NigStpVCXLUozt8IEJmlDa9KTYUXSvOVFFyPsWU9YwuoISY9ss874m3LZwLhPqaC1BhsIoAsbv5dtUWeNUsbpym0ErBOJr0bHb9ntHlgXDc8vXFFir49YSLnJoFWGPIi6dHbcCTbhTEXFA2KFN+ObHzzCsEW1QlqX//fEtLbfDCxS92zcyjktwU5364zfvjo8f+dAWld2XT9+9V5Um+Ngvslm92IDUffLzcSwPs75gZTLXjo6+//rFCSle9DRDE8YXXih3yiHl+G+eIVzH/+Wxsq2jo6PTV8++IRXUOD22/SPjuDht5AkZnvyAYX398mjXW2UbR1ieP/2BKK3AzbHlG5mOqyep66vTo6ObnurKZD44ovLq31RpPfaTZ2QLGi7qk39m6orlqpeqkFxGxR1sYaX9TJRWZL/xEMEHspaKi3avX59gXE9PyfO97qEqLDdQaRsbW1hpT96QjsZ4f4YhG99Tr2m4iFN+T8zwFTOca2PXRAUVtpPJXNlGf7yk5sgpRGvOqMIfESuIeq9/AjM88mmLuIvtx39cpxzyT0Ihdfo7M6AxI+LmvIqL0OELYobPj4R4skXcxa7Ef+ySYk+/emFBNtYohvl75r8ILsryrHsRuTxOPUJQF9tCf+xwdnxyIiFj/mxujFoYITISoriecJYHsjUOHCGYEzPcnSH5XkE2q7RqeFlTno2M60iRK2NCwnKdlbR/ZEfG7GhUAmlQ4pin1hxWXLjwcx5bDhgP7cCiX1JklBubdOg5PeLcFbud8g/heSsuP7aI8CDPcUUu+zlBxvwZ4+rRullVUXjOjSv2qh6AIe+F+PVAKZvqrEYvY9Q4ykzqjNJFi0m4sPdxSB5JQqXXmSVuqYXTfsaiK0ZrU47CLEINkQ0sSdz7gwMXihcMEqG3SXCOuILeH6mvWKgcmC2RIJMi4jm5/6cXZoi0g+WhXz7VqzXbYtQr2168FMq9ul4r6mJoBHTZUPor4qmp0lk3G9YYmSHSYDMsgDjKhkuxxXri26RKR8V29ehom/6vy1f/gtTYlp98WqGuokQ/YuJ4T3A9N1Wq2mIUpHtHVgmgUSILRCO768biT59+AwlEaWI6acmOIkAF/kri+e+tuMjDRpIvS43PBUHMG4iqw/j/IJC63KAsGGWfWuI1c/nP/41HMXQehLnZYdx0UzbgOm6AixCpkAkC8IZikDO9Z8bvp+FFDNrNuAz0v9ESjzjp08vbw0fDVcn/kYjjZzdxYLkpwSoU+66ZxrArXhNSaFeJOe9aKyAEUqHFUmZM/x6mITsJPC/6TVIHQ7KdibgR5pyoqPT5UyhHpIshYDftNZBu1iF3M4ZLHVnNSq4ZM/2JMmC2yP8wHRQtjkoT/sKwEBBN3djA4YdFnv8bGqPc0ERpyMyBQ0Q6AnPD+oVOKw2CtLCQhOzFRu0hLmVr31XHqx+wMZJbGRekpPxZiTkCbogfP/q7FulAeX0ypLaYMK2dvHY/OCzEGCkzVoehfKYwQjbYNWND/OSj1djDXLMx1nc/0eeeFA+ahL08/Om7RGDPn6HnR900m7pIFTLOSu6hyBjxw8+oIq7fNPWB774lPaVnL9gpPWKP3/6SiIwwI42GqcNdTlEDVdg8+YRd2BtkiI+yS/yaXQ3bP4gZ1uoj4ortkUzrnfwjCdjp1+8Bf8ynJkZZYdhE3mHm+OQamKDf2JeGuBRXh/1cMkqCwyGv205+T0L2/TvsTshNrbTESIlmmnzKCxd2HLuw7ZsSNk4lhDYKff7bY6PAPn75BhUwbdcl5phIIU/f6ipLDD/aEiVihf0oxVI7+2J0coUML16T7lUXpSQC468ejj4AldfTIXv5o66yxOHLPKRErLDyR19+8TFWGJOdAzojRWbYiR3WIMknAdsQfRQCY/PnbmvcOvi0LFRGTWw+ARedcaO9ASsMvzf/6Mudq3LhyIRuAFxSAJUA7ArwhxIwNmNkZ5Cd/fihLt0GKqOzBAnr9ZchyURYYWT1BmrO/k0I7uo1HNN9Z8CVAGwXcqoMjCEzsv427waLQGWUxt2M35RaUOQKy7LlG1f2r8nRB/FfCi4nsN0bUgEKMIrsW81TS8RFVFY0KMMilDoI14dAYUvgoo1dAA7HGwU1iLIC0yMXFRidhvhJuujqNeVd8ApWGamWdh/nKzMywqFcjyemyDqiRfXCjQ8u4wf/WuXDBGD6LI0GjHLjbwCV/iYnvAciRkJ4rtlTaq6UOtD48gFRmHlo9cHlz3EH62u/jAUs0wUEsnVgfiewsjfgQf5Coi1SSySjAMz1h2Qpke2GnBRvGIHJ8WkqYGRE8W08NrOgimX9EF1DVtvOJNoisUTqEhB13L8rUYcq2Fhrhh/GBEbGgH9zzZkvZe8L+kiyRdkSC2bqABIVTMThA5i9ZC4rmLNJH6km2GILWmJXUIfNEnHRxnHKuMCILZRdwNbvie6dZIvLqiXeybosMW8zRA/ASO91jVmXsncEdmKLVh9Noi46AkDGUHRaoqNuK7D97e0bMSUkA6uDoMks0BYJL05brqQKJUEXtsR7LkvMA+efGhiVZGDEznVHIoTYIuHFNUddnOxJYI9GffedlpgTvl8TD8BwAGI2dCLEFouwQsvYZRmSZkVwotk7uxQGgc2JEbSYJUsBjDgzVy/LFoWPJm8oLLNV04DscWB/iwf2Bik7FGaJPITy0gDDKnP1ssVbogmU8I3XNWAX66N7iHc2Nz5yKcwLMNLLHL5s9a5wN1OkBuPMaQt2saKIE81dLHDW6gVYZInXmCxl9/jDpeMt4yslQpnUi9UE2Zu7WMVpJ16AYWuv2H/OZC+JC+ZAP1KE9D/i5MKkLlZ3k7EfYH3B50aJbglPRmYNjexBuIMwZl6Mnc3AkDco2N8T+QFGggT7z+t3BXFSX2W4qgkrD4QX08aYWCruKj0BK7ptcRV7MjLapOxhiIOlX1CJew7uiBLCAk/AcPhTt/5M2IOEi021Ci4tqEsUVVwiwIw7BXrCuCcJLGMdPhDB7EGjE9KTDAF+FfY+MXg2R8DlBN9pRAMkLbCce/CSxexB/i4BipBkGQALxVjMDKwygLszdPEFDPX1gv3naFN4U9h+SSDivIg7jKQYJYVxvoDl3cHHYlY0pGoDNg+A4U6btQPLJ3Qxb8Aybk9GgBESI3xvGJKRZpBIMRABlXEwFiSEBP6A1Zw2v4ppUeJ7W1uEG9tzuLFi0ujWG7Cykz3SAJP8AG64A1gugTv8AQucj3A1K+iZDk60+F4CDNyYEVgSKfoD1nPSYogdWQ7WqVU3FLAkUvQHLC8clUGW/gR24YDVndHiUvZQmGoaYAURUZmAJboxf8Dcz3Apuyk0mgYYiKiswJzNAcDaIMknX7MwCWBkDK1FwRMDBoU/zkkAs0TBf0hgoa4xNzCffWySwFaH7WM+WXE8YJGTFVcxK44GzBjdnx0wt9WvjuHHLjSwRd/AhokVxwPmjhXTAGvA70F0b5waGCa6Hw+YO7pf0aN7PR6A34PxmHGGe5jx2HjA3OOx7CgDTTqCNk6/JY6gq2bh05mXhbj3rDpH0EupgNnmPEZzZL7EOecRZtPMedhmqUxzRImzVL7EPUu1mk0zS2WbVzTSYiGJPTxJkECKaeYVbTPBRlpMmgn2Je6Z4JVUM8HSexjoyEzsgefuLTvD8gGSvJdfUTX2uftsqrl729sW4+sWslVuUClLGUjrvTJMHFkp9xy/FuRfI+3XetLblpg7hEbtb1ts78fMU6ZiM2Ih18GPuZPTcnyO/Ssie7tbWc+mej9mfaNpZI+OoSGTEfvrxSib6o2m9R20MfaoO5pSyeVy9j21w/5qn7nPZsFCD8c7aGnVAH4V63DR+IJKoCYDBntN5f2lI/9qt8Qwm3LVQIsoU1vnYX8vET+suAmdHJFOoLls968Z6VfVLsIuXsBiX+exngVvamlEaFznIS1+AytzzLboXpnjRTrC0EyyQuKO5JU5EnvAtVTm9+t4LdUk48WEtVQh7WJ1/Mm1lsq6+s1si5g4JxlWYWO3B6SxJaZd/aatV6QrZy2rjlD3dq9HHkuwwhxjo5Vs6vWKthWmFlvMEyoLunX1l3oXu92eTgj5Pv6lqykiIsEUSPSBe5h9KUlsialXmMprggeA8M3LjgRfg8gq7MPQqNIREOqScwABFdybjxLF47biTu5YYLpILFFaE2zpYsoq7jK0ReMqljz0QigFRBDkDFnuc0VL0ERuKZtuKZOH4BjyZbNDrOJuQc7sQ1s0r3cu603yKo6B0Sq1xHTr7qWdEiHYKWGhj8gUumKpsUMk9MbGYjy8AAVTSjTlYKYVyRLb9giYiL63hQEzr4HDHbwmd55BjfcrufPArljvSbdU4C0cnMOXxNSB97aUYbsd+6yk3UiYF9kw2jCORnvc8Ha/OOqJuuSkj2LQVR5zvRfgoClQQ6qwSwKqcqCeKlHvY9SupemxwvTdSI6Ntdb9Y5rKdsnOPbLx1LEIdCTBj3TwcNe6GwkpTN8/5soRIe34C1DxmwaVgR35r9E1+o6/sUTs+Nu6Zga3Qqkj9Y4/ZovER8M9mlxlG/s7Up4BskfTZ8xIMtm8ZRVs3dxX51SRwobco0nnB6hDALtqicquyBkGkJh31Y6Dy7Cr9qoMLlbYsLtq5Yvqkso+PTCmKfmF7IMOlBFVvkeCJ+OXElvUyZeUQuAO7y34GLd3Duge1NiHEa4fYh+0fef6Xz60JcyhmSEG4PAVSPM8KVAdfFnrsS878MtIwnV1Q01CEYP7ACvsLuJ66r+rjjEmEEOugRjVJ67caL8DjxSzd1nzzDHZF7Uvazkl2R3+knyBsyhsUwWpyUM+/8sjPCcwXK4Bhr8NVEayQziSbb0e+BWSHQJke90F28Jfxg0ZJTsEpQ/6ALDK3jJgxy+HQFbQQyT6pRZRKV+yrBfbcGP3dbpb/vTruB2GfB7JKVisGVhcifp+P5GbWmAHy0Tg+B1+SFAEA6oy/TLsk89SqqOr1wAbXkHs9Z+4GU90haVITdXQVfb+OMkYOYMUi+jcNCl6ivqB8csOjrM4a0ZkeKdlvJC2rl/Z/zhuxWg5c0xZjl4kGuPRLxPMcnRDJH15GLcBZzmi4S9VWKrEVExlhBgjnpcqIfkby0uVq48Ai6pr8NaWl2oHJ6Xc+CJuAs5LxYY0w+SlsmYSS8qS9hszx2HDEH6cyG/2wlE+j43PUQtw1vFRMokpqcTIi5UfOLL/GCqlnuZDygmFYBhoPPfbt0kpqRDTH+PcTTQRIcv9ljb3rD1bnyUl5sZ1zMUH/OCdQvpsfTz0+FsCrKPniOmf/QqYYyFVNCXEnl+RJaiSZYfmO4rdDsyvmKKmrrg8cmUfRHL6FFU+Vn5FR0ZMI4Ggjn2TpTCFGTHdI1AQUeJMeI58kUi+OmaMyDJilqTANo0w26WBFTHGJ4JAFD+NyPiqSDrbBy+IcoaXLLhI+BapQpTrzKtIcI2bw9SYdfbNMwsylgBXBHda1tlePl/Hv9Tz8dBFnkrkqVk3LJAErmdvgCE25KefUpQkvDWlm0nIWAJcuCoqSnmWZqUDWEYbxQp5havFMaKSJ3jIDOpKZucIZHZWkfFUzEoRyeeEVpROaLfF73GlPjI7M/5gye5hLm4FGbJElKDjhl6IsgICiikXt9UWib5ILm76LJghDn+m4bysaZI9/Z0BGbLAgyPraRlRVxl6FuKIWJ19pHLDjAv3L0ocbBZ15Ozp3BjZI4H57gkywvo8PX3Ccuw6zndfd15zkIjLQ7577YSCmoqM+DOenn6EKlQxpLmnfvlYPnth7fGohojEdaYEQYaiK3ZQgqGLDS/6PNhzgosQvZ8zJbRTQKKCiiyOiPmRHV4OR9Js8eXXABebcW4qj3xooW6ae7O6juzp3zOUzbwcraYmuid0ePxEwsUmP8c4+Ml50g6RT0Pqf3ycAaIkhKdmeOz9pB3ezXjYoiH7EL15R5bo6QQhmMKfmqGKi9nRWGfXsmjYfJpVLF+i97gvfXUxaIunX9EqXphxjXrMDhX9/DGC7F/MEmNgj9D5T75OL2S2+Iqqi8RROq6hQylVeEEsqytNLU0PLvzws2z2YUz8r/x0MWaLL2nvOn5GTkHlqbC1Bz26sGCTcyvN5fvmCetkaKrvk2hp7JqwoGT+z5kVHlvP+PNxCjsjoWmeiZekpz8hHe3hI/xvNru45KGyTGb7lFsh7V5i2ovj8nPeZMI5mkhhx3/FK5OWPNT23xwWO/yUrx5o+cWVfPIpJZGsB62trzxiRb77ldAGH7Px7p56VipRODI+DKcUwjjkE/bac6xDhsNFVAJVFzmNEaT45rh8Hr7uOF34Be1iQoY/cR3L+gq5/QvQu8DKWcPBzT6EF1vixebpyP/9O9rFhKwM3dtWI37zX2My1M+DZvHh42WvuOAD00/wfvvjR1lVVtLrLWS6IvKZ6QTvOd1kfAlHBs9cZ9M15dsaMgJuKQnU6qJy091LA1Vd4vDdCeACB03DcSubrLdAQ0S5vmqCt7S0ur64ol19u3ifFghebPDzjb34ZV3EWfXCHMURQIPyPQMsob3FWFZjQf9Hlotu84nWspjtaXAz9BBHmYU7/sfTYPpVTNbvHVoanE4O91hBOTAv3haVjhv32qUpHl4JjBoEtPtFp9occo/boASrUeI1zo03TkkQTiGS0uBZandGwHaveGdgggXU9XjWM82rIjoa7GkxNN7XELZbd5PRMLkFUA2KENaMUNf0pLqXENCX5acon1e4dykFuLu3Lu2Be+STDJuCDOVnODGpigqnq5KBdIHakOZidJsWTJu3LuXuSFeX5TcUVWEaI86LDi9T86LOedlGwr6+Zn1vr3zp0qXDTSSH8V/lvT3tmrJycF4LVjHKPPZo0gRKU6FJC7FTSaXYVcIvCOvxwoRZQxbQr2NobbXuqJcSXEV/m9SUYJ1N74IC6DHuawu6kwnzxu0dXGpl0xmbjapU7nDvYf0IZK1Yls2HE0VoAxLYN0HW4PctxwuvLUtlnq0VCmnMSs2YXxjPbGYW5qXylicaaiS0pfTYE7aZ9pxcVOnsuNAoU7LWELaEA7MMsqbo6vxhIWmo0OJmVadS946pakm7f/YcjRBKs6o+8FjmZtsJ6JpT7dk5/cb56gWBhUWhMybTpeVqe2pK7niNqal2dbk0bbxjefLR7pDSUHu/ropS0hVz7YukLCHJ2JyoqmceZAwhjbbZJpNk+YLqShITz7kk5tDzbnJ6mWktpEFXWmhdZPuzSSNmv5KR/aZLpZgt/wDWlyAzODVrtVrF//8RdfSn/Cl/ii4BEzBXGeFN5XDJbtjD28z5ZBLOv2HZMxDRa9nnPq+iL3/m5QdCxBV5URG4Gf8ZKXfl5XLJRzCzUmctYd/kGI56QbkmwD8bcfXZtWx5hpj/zimf2ZtzMBUirghEReBm/Kfa8kApF7cSzhmRloBEHfQdcAj2viYBAzkjcknA2Jps38DwlnNQKE2PAec8CdQe+KabAAxmT6snAaNPzjswlNUJ/18jE2VFcUOlBorAUAs50BQ7sBy4Vq0QAKuRb4kBsM2ncdccFxgtt8yv7PB7cbqaQUQ2jpFbKuQhiGscwPDdXfIsimozxec87cn0uzz8oAEDFanAAOXlZCT05y4vgNUBSqfXgEoSgEnXWoBJWDwCw0UV+M/9/zfAurQo8nNYnjCwnHAw0GTSAaso3gn8WRR+jZaLkVRkViz7AwY8uCAPnb1YrjA3MHCzCgx8huXmDHTvBxgQFzC2p8M3sJ4ErCbVcRbAePI4z8AkB10JQqmOswDGKcUzsJ6pIWfDioFcgjdWDDrs3vMChqvheQb9AeM3nCswDsUfsC57YOcFTK7YHzBe0vkCY6NRf8BC9rUGjATB+ZBGvkhw7N3JiOiE1FfD2xNNwHrsFl5hUVxLmy3hHRlYT+yQVB6YBiwDt4qCYQsVlYUHGVkUNyl/owFjTR4Z2ED8Tu+q0Zt1YGDhEM2i3xff0MGjHRgclIIYTgeGi0gXUg0FjD0wHRgY3LNMMTWlDAewUCxd6YBmWoCNHd3rwNgD04GxjRCgx4esceUwCVimzp5CR5vMkYDlYc2+gcVF4U6tLpHpgnRstLk4Q26dfYzyXFRgdMpMpJWtK9fizyiPN6g5lIqiV/CK6qBscZMotm4o9/8AW5Q+aKXy/twAAAAASUVORK5CYII=,Failed to fetch the page,N/A; info@e1poolcertifier.com,"```json
{
  ""address"": ""27/58 Box Rd\nTaren Point 2229 NSW"",
  ""contact_number"": ""0414 446 780"",
  ""email"": ""info@e1poolcertifier.com"",
  ""name"": ""E1 Pool Certifier"",
  ""about"": ""Lee Steege is a certified Pool & Spa assessor and has got 25 years experience in the building industry. He lives and works in Sydney and has an excellent working knowledge of building requirements of local councils and regulatory authorities.""
}
```",,"```json
{
  ""address"": ""27/58 Box Rd\nTaren Point 2229 NSW"",
  ""contact_number"": ""0414 446 780"",
  ""email"": ""info@e1poolcertifier.com"",
  ""name"": ""E1 Pool Certifier"",
  ""about"": ""Lee Steege is a certified Pool & Spa assessor and has got 25 years experience in the building industry. He lives and works in Sydney and has an excellent working knowledge of building requirements of local councils and regulatory authorities.""
}
```",,True,,,E1 Pool Certifier,"27/58 Box Rd
Taren Point 2229 NSW",0414 446 780,info@e1poolcertifier.com,Lee Steege is a certified Pool & Spa assessor and has got 25 years experience in the building industry. He lives and works in Sydney and has an excellent working knowledge of building requirements of local councils and regulatory authorities.,E1 Pool Certifier,"27/58 Box Rd
Taren Point 2229 NSW",0414 446 780,info@e1poolcertifier.com,Lee Steege is a certified Pool & Spa assessor and has got 25 years experience in the building industry. He lives and works in Sydney and has an excellent working knowledge of building requirements of local councils and regulatory authorities.
